[{"name":"ONEWEB-0248","l1":"1 48798U 21045AH  26183.47603769 -.00000063  00000+0 -20009-3 0  9994","l2":"2 48798  87.9002 256.1455 0002180 112.8875 247.2485 13.15548559246421","cat":"starlink"},{"name":"ONEWEB-0225","l1":"1 48799U 21045AJ  26183.65033487  .00000210  00000+0  52295-3 0  9993","l2":"2 48799  87.9000 256.1183 0001825 116.4747 243.6571 13.15547705246452","cat":"starlink"},{"name":"ONEWEB-0215","l1":"1 48800U 21045AK  26183.62022824 -.00000092  00000+0 -27737-3 0  9999","l2":"2 48800  87.9007 256.1078 0002046 119.0676 241.0660 13.15548422246325","cat":"starlink"},{"name":"ONEWEB-0216","l1":"1 48801U 21045AL  26183.47761998 -.00000024  00000+0 -98454-4 0  9995","l2":"2 48801  87.9003 256.1503 0002012  98.1141 262.0217 13.15547720246312","cat":"starlink"},{"name":"ONEWEB-0239","l1":"1 48802U 21045AM  26183.48237271 -.00000023  00000+0 -95960-4 0  9997","l2":"2 48802  87.8991 256.1544 0002313 120.6462 239.4896 13.15547566246357","cat":"starlink"},{"name":"ONEWEB-0249","l1":"1 48967U 21060A   26183.55625620  .00000037  00000+0  62355-4 0  9998","l2":"2 48967  87.9085 225.7261 0002124  97.7566 262.3806 13.16596071241639","cat":"starlink"},{"name":"ONEWEB-0250","l1":"1 48968U 21060B   26183.55201919  .00000055  00000+0  94199-4 0  9991","l2":"2 48968  87.9085 223.4329 0003093  98.9844 261.1642 13.25834979242254","cat":"starlink"},{"name":"ONEWEB-0252","l1":"1 48970U 21060D   26183.51115344  .00000055  00000+0  11098-3 0  9992","l2":"2 48970  87.9088 225.7270 0001800  93.9801 266.1535 13.16595071241670","cat":"starlink"},{"name":"ONEWEB-0253","l1":"1 48971U 21060E   26183.57606959  .00000044  00000+0  80272-4 0  9995","l2":"2 48971  87.9086 225.7195 0002161  97.7137 262.4239 13.16594630241614","cat":"starlink"},{"name":"ONEWEB-0254","l1":"1 48972U 21060F   26183.58556367 -.00000068  00000+0 -21254-3 0  9996","l2":"2 48972  87.9088 225.7153 0002166 104.0500 256.0872 13.16593462241616","cat":"starlink"},{"name":"ONEWEB-0255","l1":"1 48973U 21060G   26183.54756372 -.00000049  00000+0 -16242-3 0  9991","l2":"2 48973  87.9086 225.7295 0002068 100.8937 259.2427 13.16593604241687","cat":"starlink"},{"name":"ONEWEB-0256","l1":"1 48974U 21060H   26183.34570189  .00000025  00000+0  33040-4 0  9998","l2":"2 48974  87.9082 225.7729 0002012  92.6667 267.4694 13.16594214241622","cat":"starlink"},{"name":"ONEWEB-0257","l1":"1 48975U 21060J   26183.53014435  .00000029  00000+0  43432-4 0  9997","l2":"2 48975  87.9088 225.7241 0001949  98.3292 261.8060 13.16593494241605","cat":"starlink"},{"name":"ONEWEB-0258","l1":"1 48976U 21060K   26183.53173132 -.00000041  00000+0 -14131-3 0  9997","l2":"2 48976  87.9091 225.7362 0002135  96.9297 263.2077 13.16593657241617","cat":"starlink"},{"name":"ONEWEB-0259","l1":"1 48977U 21060L   26183.52539662 -.00000051  00000+0 -16695-3 0  9999","l2":"2 48977  87.9079 225.7354 0002178  99.2944 260.8433 13.16593505241641","cat":"starlink"},{"name":"ONEWEB-0260","l1":"1 48978U 21060M   26183.51668557  .00000026  00000+0  33185-4 0  9999","l2":"2 48978  87.9079 225.7385 0001738  88.1783 271.9546 13.16595179241620","cat":"starlink"},{"name":"ONEWEB-0261","l1":"1 48979U 21060N   26183.56260648  .00000103  00000+0  23710-3 0  9992","l2":"2 48979  87.9083 225.7301 0001846 103.5002 256.6334 13.16593447241687","cat":"starlink"},{"name":"ONEWEB-0262","l1":"1 48980U 21060P   26183.54281171 -.00000016  00000+0 -76656-4 0  9999","l2":"2 48980  87.9086 225.7204 0002281 100.9067 259.2320 13.16593674241642","cat":"starlink"},{"name":"ONEWEB-0263","l1":"1 48981U 21060Q   26183.57447564 -.00000031  00000+0 -11396-3 0  9999","l2":"2 48981  87.9087 225.7257 0002007 105.3223 254.8130 13.16593662241615","cat":"starlink"},{"name":"ONEWEB-0264","l1":"1 48982U 21060R   26183.53567921 -.00000040  00000+0 -13842-3 0  9994","l2":"2 48982  87.9085 225.7363 0001907  96.9811 263.1537 13.16596232241618","cat":"starlink"},{"name":"ONEWEB-0266","l1":"1 48984U 21060T   26183.55706611  .00000082  00000+0  17978-3 0  9997","l2":"2 48984  87.9086 225.7229 0002178  95.0180 265.1199 13.16594706241601","cat":"starlink"},{"name":"ONEWEB-0267","l1":"1 48985U 21060U   26183.18816149  .00000001  00000+0 -29945-4 0  9995","l2":"2 48985  87.9087 225.7926 0001883 100.5982 259.5361 13.16593694241569","cat":"starlink"},{"name":"ONEWEB-0268","l1":"1 48986U 21060V   26183.15649103 -.00000050  00000+0 -16348-3 0  9994","l2":"2 48986  87.9088 225.8086 0001980  92.8245 267.3112 13.16593317241824","cat":"starlink"},{"name":"ONEWEB-0269","l1":"1 48987U 21060W   26183.51747877  .00000006  00000+0 -17887-4 0  9992","l2":"2 48987  87.9081 225.7380 0002009  89.3894 270.7467 13.16594169241645","cat":"starlink"},{"name":"ONEWEB-0270","l1":"1 48988U 21060X   26183.53489799 -.00000090  00000+0 -27018-3 0  9991","l2":"2 48988  87.9091 225.7356 0002172 105.7604 254.3767 13.16593616241684","cat":"starlink"},{"name":"ONEWEB-0271","l1":"1 48989U 21060Y   26183.37023810 -.00000107  00000+0 -31314-3 0  9995","l2":"2 48989  87.9084 225.7574 0001982 102.0783 258.0570 13.16594605241665","cat":"starlink"},{"name":"ONEWEB-0272","l1":"1 48990U 21060Z   26183.54440742  .00000037  00000+0  62905-4 0  9994","l2":"2 48990  87.9079 225.7346 0001760  94.7448 265.3884 13.16594438241637","cat":"starlink"},{"name":"ONEWEB-0273","l1":"1 48991U 21060AA  26183.56656080 -.00000036  00000+0 -12656-3 0  9999","l2":"2 48991  87.9088 225.7300 0002064 100.1650 259.9713 13.16593795241616","cat":"starlink"},{"name":"ONEWEB-0274","l1":"1 48992U 21060AB  26183.51589257 -.00002492  00000+0 -65521-2 0  9992","l2":"2 48992  87.9078 225.7409 0001753  91.3600 268.7731 13.16607447241647","cat":"starlink"},{"name":"ONEWEB-0275","l1":"1 48993U 21060AC  26183.58081611 -.00000014  00000+0 -69742-4 0  9990","l2":"2 48993  87.9091 225.7184 0001951  96.5058 263.6295 13.16594625241582","cat":"starlink"}]